0 DELTA 1 DEB
1 21933U 75052JT  13285.33869721  .00000227  00000-0  59150-3 0  3139
2 21933 099.3216 056.8198 0177774 243.0234 132.3551 13.21748648 60187
0 DELTA 1 DEB
1 21933U 75052JT  13290.33723729  .00000275  00000-0  69829-3 0  3140
2 21933 099.3228 061.2760 0178096 231.1139 156.8554 13.21751295 60844
0 DELTA 1 DEB
1 21933U 75052JT  13292.86248346  .00000263  00000-0  67037-3 0  3154
2 21933 099.3228 063.5274 0178222 225.1085 292.7119 13.21753004 61177
0 DELTA 1 DEB
1 21933U 75052JT  13295.33311410  .00000283  00000-0  71592-3 0  3166
2 21933 099.3227 065.7302 0178306 219.2158 168.7275 13.21754358 61505
